# AQUA
1 27424U 02022A   16038.17710916  .00000310  00000-0  78860-4 0  9992
2 27424  98.2210 340.6457 0000866  99.0301  13.8847 14.57119942732044
